{"type": "FeatureCollection", "features": [ {"type": "Feature", "properties": {"norad_id": 35142, "name": "FENGYUN 1C DEB", "group": "fengyun-1c-debris", "lat": 59.02698872512122, "lon": -25.22274335008815, "alt_km": 962.5082178967441, "timestamp": "2025-12-24T07:45:06.487289+00:00", "meta": {"OBJECT_NAME": "FENGYUN 1C DEB", "OBJECT_ID": "1999-025DLW", "EPOCH": "2025-12-22T11:17:59.858880", "MEAN_MOTION": 13.90511654, "ECCENTRICITY": 0.01079849, "INCLINATION": 99.0448, "RA_OF_ASC_NODE": 348.3644, "ARG_OF_PERICENTER": 187.5379, "MEAN_ANOMALY": 327.226, "EPHEMERIS_TYPE": 0, "CLASSIFICATION_TYPE": "U", "NORAD_CAT_ID": 35142, "ELEMENT_SET_NO": 999, "REV_AT_EPOCH": 85824, "BSTAR": 0.00012122945, "MEAN_MOTION_DOT": 1.15e-06, "MEAN_MOTION_DDOT": 0}, "tle": {"line1": "1 35142U 99025DLW 25356.47083170  .00000115  00000+0  12123-3 0  9999", "line2": "2 35142  99.0448 348.3644 0107984 187.5379 327.2260 13.90511654858246"}}, "geometry": {"type": "Point", "coordinates": [-25.22274335008815, 59.02698872512122]}}, {"type": "Feature", "properties": {"norad_id": 35144, "name": "FENGYUN 1C DEB", "group": "fengyun-1c-debris", "lat": -52.44252679453902, "lon": 125.71125785641767, "alt_km": 684.2757578792007, "timestamp": "2025-12-24T07:45:06.487299+00:00", "meta": {"OBJECT_NAME": "FENGYUN 1C DEB", "OBJECT_ID": "1999-025DLY", "EPOCH": "2025-12-15T03:29:25.584864", "MEAN_MOTION": 14.59259684, "ECCENTRICITY": 0.00266192, "INCLINATION": 98.6997, "RA_OF_ASC_NODE": 104.611, "ARG_OF_PERICENTER": 353.8009, "MEAN_ANOMALY": 6.2856, "EPHEMERIS_TYPE": 0, "CLASSIFICATION_TYPE": "U", "NORAD_CAT_ID": 35144, "ELEMENT_SET_NO": 999, "REV_AT_EPOCH": 65248, "BSTAR": 0.0015089834, "MEAN_MOTION_DOT": 7.114e-05, "MEAN_MOTION_DDOT": 0}, "tle": {"line1": "1 35144U 99025DLY 25349.14543501  .00007114  00000+0  15090-2 0  9997", "line2": "2 35144  98.6997 104.6110 0026619 353.8009   6.2856 14.59259684652487"}}, "geometry": {"type": "Point", "coordinates": [125.71125785641767, -52.44252679453902]}}, {"type": "Feature", "properties": {"norad_id": 35147, "name": "FENGYUN 1C DEB", "group": "fengyun-1c-debris", "lat": 47.59702418492113, "lon": 63.03104371682292, "alt_km": 650.3619061093304, "timestamp": "2025-12-24T07:45:06.487309+00:00", "meta": {"OBJECT_NAME": "FENGYUN 1C DEB", "OBJECT_ID": "1999-025DMB", "EPOCH": "2025-12-23T03:50:50.164512", "MEAN_MOTION": 14.74583584, "ECCENTRICITY": 0.00275374, "INCLINATION": 99.485, "RA_OF_ASC_NODE": 72.2202, "ARG_OF_PERICENTER": 167.5874, "MEAN_ANOMALY": 192.6014, "EPHEMERIS_TYPE": 0, "CLASSIFICATION_TYPE": "U", "NORAD_CAT_ID": 35147, "ELEMENT_SET_NO": 999, "REV_AT_EPOCH": 74458, "BSTAR": 0.0024526788, "MEAN_MOTION_DOT": 0.0001641, "MEAN_MOTION_DDOT": 0}, "tle": {"line1": "1 35147U 99025DMB 25357.16030283  .00016410  00000+0  24527-2 0  9993", "line2": "2 35147  99.4850  72.2202 0027537 167.5874 192.6014 14.74583584744584"}}, "geometry": {"type": "Point", "coordinates": [63.03104371682292, 47.59702418492113]}}, {"type": "Feature", "properties": {"norad_id": 35152, "name": "FENGYUN 1C DEB", "group": "fengyun-1c-debris", "lat": 19.203835018462332, "lon": 177.9203089995083, "alt_km": 857.1883537969179, "timestamp": "2025-12-24T07:45:06.487320+00:00", "meta": {"OBJECT_NAME": "FENGYUN 1C DEB", "OBJECT_ID": "1999-025DMG", "EPOCH": "2025-12-16T18:13:57.032832", "MEAN_MOTION": 13.7643783, "ECCENTRICITY": 0.01945259, "INCLINATION": 99.8194, "RA_OF_ASC_NODE": 173.5777, "ARG_OF_PERICENTER": 5.0809, "MEAN_ANOMALY": 355.2255, "EPHEMERIS_TYPE": 0, "CLASSIFICATION_TYPE": "U", "NORAD_CAT_ID": 35152, "ELEMENT_SET_NO": 999, "REV_AT_EPOCH": 62248, "BSTAR": 0.00057948786, "MEAN_MOTION_DOT": 6.03e-06, "MEAN_MOTION_DDOT": 0}, "tle": {"line1": "1 35152U 99025DMG 25350.75968788  .00000603  00000+0  57949-3 0  9999", "line2": "2 35152  99.8194 173.5777 0194525   5.0809 355.2255 13.76437830622484"}}, "geometry": {"type": "Point", "coordinates": [177.9203089995083, 19.203835018462332]}}, {"type": "Feature", "properties": {"norad_id": 35153, "name": "FENGYUN 1C DEB", "group": "fengyun-1c-debris", "lat": -31.98554469181936, "lon": -103.1274426353281, "alt_km": 631.1892506654094, "timestamp": "2025-12-24T07:45:06.487330+00:00", "meta": {"OBJECT_NAME": "FENGYUN 1C DEB", "OBJECT_ID": "1999-025DMH", "EPOCH": "2025-12-23T12:20:37.451040", "MEAN_MOTION": 14.73794297, "ECCENTRICITY": 0.01708912, "INCLINATION": 98.9019, "RA_OF_ASC_NODE": 250.3679, "ARG_OF_PERICENTER": 49.7211, "MEAN_ANOMALY": 311.8793, "EPHEMERIS_TYPE": 0, "CLASSIFICATION_TYPE": "U", "NORAD_CAT_ID": 35153, "ELEMENT_SET_NO": 999, "REV_AT_EPOCH": 97376, "BSTAR": 0.00039714286, "MEAN_MOTION_DOT": 3.213e-05, "MEAN_MOTION_DDOT": 0}, "tle": {"line1": "1 35153U 99025DMH 25357.51432235  .00003213  00000+0  39714-3 0  9994", "line2": "2 35153  98.9019 250.3679 0170891  49.7211 311.8793 14.73794297973764"}}, "geometry": {"type": "Point", "coordinates": [-103.1274426353281, -31.98554469181936]}}, {"type": "Feature", "properties": {"norad_id": 35154, "name": "FENGYUN 1C DEB", "group": "fengyun-1c-debris", "lat": 27.801972784138083, "lon": -54.44564093855643, "alt_km": 928.2712987962814, "timestamp": "2025-12-24T07:45:06.487340+00:00", "meta": {"OBJECT_NAME": "FENGYUN 1C DEB", "OBJECT_ID": "1999-025DMJ", "EPOCH": "2025-12-21T14:44:17.053728", "MEAN_MOTION": 14.18909394, "ECCENTRICITY": 0.0179024, "INCLINATION": 99.4221, "RA_OF_ASC_NODE": 117.6528, "ARG_OF_PERICENTER": 17.5176, "MEAN_ANOMALY": 343.2066, "EPHEMERIS_TYPE": 0, "CLASSIFICATION_TYPE": "U", "NORAD_CAT_ID": 35154, "ELEMENT_SET_NO": 999, "REV_AT_EPOCH": 64703, "BSTAR": 0.00022139, "MEAN_MOTION_DOT": 4.9e-06, "MEAN_MOTION_DDOT": 0}, "tle": {"line1": "1 35154U 99025DMJ 25355.61408627  .00000490  00000+0  22139-3 0  9999", "line2": "2 35154  99.4221 117.6528 0179024  17.5176 343.2066 14.18909394647039"}}, "geometry": {"type": "Point", "coordinates": [-54.44564093855643, 27.801972784138083]}}, {"type": "Feature", "properties": {"norad_id": 35155, "name": "FENGYUN 1C DEB", "group": "fengyun-1c-debris", "lat": -71.56304625025622, "lon": 36.18183223491541, "alt_km": 842.1910843815822, "timestamp": "2025-12-24T07:45:06.487350+00:00", "meta": {"OBJECT_NAME": "FENGYUN 1C DEB", "OBJECT_ID": "1999-025DMK", "EPOCH": "2025-12-13T11:32:29.448096", "MEAN_MOTION": 14.19285709, "ECCENTRICITY": 0.00260991, "INCLINATION": 98.5012, "RA_OF_ASC_NODE": 359.121, "ARG_OF_PERICENTER": 70.7543, "MEAN_ANOMALY": 289.6454, "EPHEMERIS_TYPE": 0, "CLASSIFICATION_TYPE": "U", "NORAD_CAT_ID": 35155, "ELEMENT_SET_NO": 999, "REV_AT_EPOCH": 72724, "BSTAR": 0.00090034288, "MEAN_MOTION_DOT": 1.854e-05, "MEAN_MOTION_DDOT": 0}, "tle": {"line1": "1 35155U 99025DMK 25347.48089639  .00001854  00000+0  90034-3 0  9998", "line2": "2 35155  98.5012 359.1210 0026099  70.7543 289.6454 14.19285709727245"}}, "geometry": {"type": "Point", "coordinates": [36.18183223491541, -71.56304625025622]}}, {"type": "Feature", "properties": {"norad_id": 35156, "name": "FENGYUN 1C DEB", "group": "fengyun-1c-debris", "lat": 5.5080825134509555, "lon": -16.409820627092845, "alt_km": 868.5092943227373, "timestamp": "2025-12-24T07:45:06.487360+00:00", "meta": {"OBJECT_NAME": "FENGYUN 1C DEB", "OBJECT_ID": "1999-025DML", "EPOCH": "2025-12-22T09:45:46.789920", "MEAN_MOTION": 14.10637167, "ECCENTRICITY": 0.00374137, "INCLINATION": 98.7528, "RA_OF_ASC_NODE": 342.5755, "ARG_OF_PERICENTER": 121.1131, "MEAN_ANOMALY": 239.3719, "EPHEMERIS_TYPE": 0, "CLASSIFICATION_TYPE": "U", "NORAD_CAT_ID": 35156, "ELEMENT_SET_NO": 999, "REV_AT_EPOCH": 64180, "BSTAR": 0.00031397822, "MEAN_MOTION_DOT": 5.21e-06, "MEAN_MOTION_DDOT": 0}, "tle": {"line1": "1 35156U 99025DML 25356.40679155  .00000521  00000+0  31398-3 0  9997", "line2": "2 35156  98.7528 342.5755 0037413 121.1131 239.3719 14.10637167641809"}}, "geometry": {"type": "Point", "coordinates": [-16.409820627092845, 5.5080825134509555]}}, {"type": "Feature", "properties": {"norad_id": 35159, "name": "FENGYUN 1C DEB", "group": "fengyun-1c-debris", "lat": 49.31726437525496, "lon": 63.57093999646272, "alt_km": 738.470960364878, "timestamp": "2025-12-24T07:45:06.487370+00:00", "meta": {"OBJECT_NAME": "FENGYUN 1C DEB", "OBJECT_ID": "1999-025DMP", "EPOCH": "2025-12-23T17:16:37.371936", "MEAN_MOTION": 14.45286937, "ECCENTRICITY": 0.00094944, "INCLINATION": 98.8378, "RA_OF_ASC_NODE": 73.3712, "ARG_OF_PERICENTER": 158.5401, "MEAN_ANOMALY": 355.5286, "EPHEMERIS_TYPE": 0, "CLASSIFICATION_TYPE": "U", "NORAD_CAT_ID": 35159, "ELEMENT_SET_NO": 999, "REV_AT_EPOCH": 61639, "BSTAR": 0.0019831289, "MEAN_MOTION_DOT": 6.923e-05, "MEAN_MOTION_DDOT": 0}, "tle": {"line1": "1 35159U 99025DMP 25357.71987699  .00006923  00000+0  19831-2 0  9999", "line2": "2 35159  98.8378  73.3712 0009494 158.5401 355.5286 14.45286937616399"}}, "geometry": {"type": "Point", "coordinates": [63.57093999646272, 49.31726437525496]}}, {"type": "Feature", "properties": {"norad_id": 35160, "name": "FENGYUN 1C DEB", "group": "fengyun-1c-debris", "lat": 72.87278435901759, "lon": -34.974570343405965, "alt_km": 786.7302612420326, "timestamp": "2025-12-24T07:45:06.487380+00:00", "meta": {"OBJECT_NAME": "FENGYUN 1C DEB", "OBJECT_ID": "1999-025DMQ", "EPOCH": "2025-12-16T13:37:44.190912", "MEAN_MOTION": 14.35976797, "ECCENTRICITY": 0.01760845, "INCLINATION": 99.155, "RA_OF_ASC_NODE": 105.2355, "ARG_OF_PERICENTER": 228.1924, "MEAN_ANOMALY": 130.4106, "EPHEMERIS_TYPE": 0, "CLASSIFICATION_TYPE": "U", "NORAD_CAT_ID": 35160, "ELEMENT_SET_NO": 999, "REV_AT_EPOCH": 64986, "BSTAR": 0.00041002814, "MEAN_MOTION_DOT": 1.364e-05, "MEAN_MOTION_DDOT": 0}, "tle": {"line1": "1 35160U 99025DMQ 25350.56787258  .00001364  00000+0  41003-3 0  9997", "line2": "2 35160  99.1550 105.2355 0176084 228.1924 130.4106 14.35976797649867"}}, "geometry": {"type": "Point", "coordinates": [-34.974570343405965, 72.87278435901759]}}]}